[{"OBJECT_NAME":"SPIP","OBJECT_ID":"2023-174AU","EPOCH":"2026-03-09T22:52:46.383168","MEAN_MOTION":15.26695413,"ECCENTRICITY":0.00100427,"INCLINATION":97.3901,"RA_OF_ASC_NODE":146.4534,"ARG_OF_PERICENTER":168.1112,"MEAN_ANOMALY":192.0366,"EPHEMERIS_TYPE":0,"CLASSIFICATION_TYPE":"U","NORAD_CAT_ID":58298,"ELEMENT_SET_NO":999,"REV_AT_EPOCH":12963,"BSTAR":0.00025731582,"MEAN_MOTION_DOT":6.692e-5,"MEAN_MOTION_DDOT":0},{"OBJECT_NAME":"STARLINK-36525","OBJECT_ID":"2026-008F","EPOCH":"2026-03-09T09:05:35.382336","MEAN_MOTION":15.27594618,"ECCENTRICITY":3.984e-5,"INCLINATION":42.9969,"RA_OF_ASC_NODE":207.0748,"ARG_OF_PERICENTER":244.5603,"MEAN_ANOMALY":115.5208,"EPHEMERIS_TYPE":0,"CLASSIFICATION_TYPE":"U","NORAD_CAT_ID":67450,"ELEMENT_SET_NO":999,"REV_AT_EPOCH":952,"BSTAR":0.0015360749,"MEAN_MOTION_DOT":0.00042269,"MEAN_MOTION_DDOT":0}]
